{
    "links": {
        "self": "http://www.neowsapp.com/rest/v1/neo/3762125?api_key=iIulBulltgU6a56xZRHN4H3l9WmuAYTsLGpBGhQ2"
    },
    "id": "3762125",
    "neo_reference_id": "3762125",
    "name": "(2016 UC42)",
    "designation": "2016 UC42",
    "nasa_jpl_url": "http://ssd.jpl.nasa.gov/sbdb.cgi?sstr=3762125",
    "absolute_magnitude_h": 24.9,
    "estimated_diameter": {
        "kilometers": {
            "estimated_diameter_min": 0.0278326768,
            "estimated_diameter_max": 0.0622357573
        },
        "meters": {
            "estimated_diameter_min": 27.8326768072,
            "estimated_diameter_max": 62.2357573367
        },
        "miles": {
            "estimated_diameter_min": 0.0172944182,
            "estimated_diameter_max": 0.0386714948
        },
        "feet": {
            "estimated_diameter_min": 91.3145593761,
            "estimated_diameter_max": 204.1855621004
        }
    },
    "is_potentially_hazardous_asteroid": false,
    "close_approach_data": [
        {
            "close_approach_date": "2016-10-22",
            "close_approach_date_full": "2016-Oct-22 00:06",
            "epoch_date_close_approach": 1477094760000,
            "relative_velocity": {
                "kilometers_per_second": "14.4942822224",
                "kilometers_per_hour": "52179.4160007602",
                "miles_per_hour": "32422.2599033613"
            },
            "miss_distance": {
                "astronomical": "0.0168678538",
                "lunar": "6.5615951282",
                "kilometers": "2523394.999951406",
                "miles": "1567964.9454691628"
            },
            "orbiting_body": "Earth"
        },
        {
            "close_approach_date": "2055-05-13",
            "close_approach_date_full": "2055-May-13 00:05",
            "epoch_date_close_approach": 2693779500000,
            "relative_velocity": {
                "kilometers_per_second": "27.8234002702",
                "kilometers_per_hour": "100164.240972779",
                "miles_per_hour": "62238.1640644471"
            },
            "miss_distance": {
                "astronomical": "0.4545832572",
                "lunar": "176.8328870508",
                "kilometers": "68004687.014782164",
                "miles": "42256153.0671313032"
            },
            "orbiting_body": "Earth"
        },
        {
            "close_approach_date": "2057-08-05",
            "close_approach_date_full": "2057-Aug-05 22:38",
            "epoch_date_close_approach": 2764276680000,
            "relative_velocity": {
                "kilometers_per_second": "12.2489714084",
                "kilometers_per_hour": "44096.2970701558",
                "miles_per_hour": "27399.7241433976"
            },
            "miss_distance": {
                "astronomical": "0.0122979082",
                "lunar": "4.7838862898",
                "kilometers": "1839740.872175534",
                "miles": "1143161.9688450092"
            },
            "orbiting_body": "Mars"
        },
        {
            "close_approach_date": "2062-11-15",
            "close_approach_date_full": "2062-Nov-15 15:03",
            "epoch_date_close_approach": 2930828580000,
            "relative_velocity": {
                "kilometers_per_second": "26.7320139373",
                "kilometers_per_hour": "96235.2501741803",
                "miles_per_hour": "59796.8419762844"
            },
            "miss_distance": {
                "astronomical": "0.408055479",
                "lunar": "158.733581331",
                "kilometers": "61044230.50022973",
                "miles": "37931125.943161074"
            },
            "orbiting_body": "Earth"
        }
    ],
    "orbital_data": {
        "orbit_id": "5",
        "orbit_determination_date": "2017-04-06 08:22:40",
        "first_observation_date": "2016-10-28",
        "last_observation_date": "2016-11-08",
        "data_arc_in_days": 11,
        "observations_used": 50,
        "orbit_uncertainty": "8",
        "minimum_orbit_intersection": ".0142498",
        "jupiter_tisserand_invariant": "3.855",
        "epoch_osculation": "2457691.5",
        "eccentricity": ".5619494037202797",
        "semi_major_axis": "1.806168140237346",
        "inclination": "2.184402535580467",
        "ascending_node_longitude": "55.1663230378408",
        "orbital_period": "886.6162622384708",
        "perihelion_distance": ".7911930308124028",
        "perihelion_argument": "268.9690445084988",
        "aphelion_distance": "2.821143249662289",
        "perihelion_time": "2457640.012987106720",
        "mean_anomaly": "20.90568990330047",
        "mean_motion": ".4060381196833628",
        "equinox": "J2000",
        "orbit_class": {
            "orbit_class_type": "APO",
            "orbit_class_description": "Near-Earth asteroid orbits which cross the Earth’s orbit similar to that of 1862 Apollo",
            "orbit_class_range": "a (semi-major axis) > 1.0 AU; q (perihelion) < 1.017 AU"
        }
    },
    "is_sentry_object": false
}